OBJECT_NAME,OBJECT_ID,EPOCH,MEAN_MOTION,ECCENTRICITY,INCLINATION,RA_OF_ASC_NODE,ARG_OF_PERICENTER,MEAN_ANOMALY,EPHEMERIS_TYPE,CLASSIFICATION_TYPE,NORAD_CAT_ID,ELEMENT_SET_NO,REV_AT_EPOCH,BSTAR,MEAN_MOTION_DOT,MEAN_MOTION_DDOT
NAPA-2,2021-059CN,2024-08-24T04:37:27.740352,15.28777041,.0009418,97.6509,20.8744,197.0092,163.0833,0,U,48963,999,17516,.69166E-3,.19321E-3,0
SPARTAN,2021-059CP,2024-08-23T23:06:19.589472,15.30478364,.0005149,97.6505,23.0899,194.1728,165.9368,0,U,48964,999,17531,.70968E-3,.20878E-3,0
W-CUBE,2021-059CQ,2024-08-23T23:31:16.227552,15.34573146,.000793,97.6530,24.1367,189.6381,170.4711,0,U,48965,999,17532,.89494E-3,.30005E-3,0
ONEWEB-0249,2021-060A,2024-08-23T14:04:42.910464,13.16595314,.0001836,87.9159,0.7083,98.0758,262.0581,0,U,48967,999,15242,.33292E-3,.14E-5,0
ONEWEB-0250,2021-060B,2024-08-23T14:04:15.364416,13.25520203,.0001807,87.9157,0.6181,111.0013,249.1316,0,U,48968,999,15242,-.30728E-3,-.121E-5,0
ONEWEB-0252,2021-060D,2024-08-23T14:50:18.546144,13.16595426,.0001666,87.9159,0.6949,95.7199,264.4122,0,U,48970,999,15247,.10603E-4,.17E-6,0
ONEWEB-0253,2021-060E,2024-08-23T14:34:20.847936,13.16595121,.0001531,87.9157,0.7078,104.7600,255.3701,0,U,48971,999,15240,.30171E-4,.24E-6,0
ONEWEB-0254,2021-060F,2024-08-23T14:48:01.621152,13.16594790,.0001536,87.9160,0.6848,105.6863,254.4437,0,U,48972,999,15240,-.58631E-6,.13E-6,0
ONEWEB-0255,2021-060G,2024-08-23T21:11:03.258240,13.16594363,.0001813,87.9159,0.6667,100.3422,259.7913,0,U,48973,999,15380,.14302E-3,.68E-6,0
ONEWEB-0256,2021-060H,2024-08-23T14:30:54.894528,13.16597385,.0001778,87.9162,0.7268,92.9299,267.2036,0,U,48974,999,15244,.46271E-4,.31E-6,0
ONEWEB-0257,2021-060J,2024-08-23T15:17:38.845824,13.16596444,.0001642,87.9159,0.6894,96.2262,263.9056,0,U,48975,999,15240,.15806E-3,.73E-6,0
ONEWEB-0258,2021-060K,2024-08-23T15:19:56.791200,13.16596227,.0001838,87.9159,0.7174,100.1840,259.9499,0,U,48976,999,15241,.46248E-3,.19E-5,0
ONEWEB-0259,2021-060L,2024-08-23T15:10:48.751680,13.16595967,.0001808,87.9158,0.7033,107.4114,252.7215,0,U,48977,999,15244,.64035E-4,.37E-6,0
ONEWEB-0260,2021-060M,2024-08-23T14:58:16.564512,13.16596970,.0001502,87.9159,0.7339,80.4266,279.7035,0,U,48978,999,15242,.4982E-4,.32E-6,0
ONEWEB-0261,2021-060N,2024-08-24T01:10:26.859936,13.16595472,.0001236,87.9162,0.6450,108.5206,251.6059,0,U,48979,999,15383,.20822E-3,.92E-6,0
ONEWEB-0262,2021-060P,2024-08-23T21:04:12.828000,13.16593646,.0001786,87.9159,0.6414,114.4321,245.6996,0,U,48980,999,15377,.25E-3,.108E-5,0
ONEWEB-0263,2021-060Q,2024-08-23T14:32:04.272864,13.16595745,.0001476,87.9163,0.7136,112.4575,247.6713,0,U,48981,999,15240,.1056E-3,.53E-6,0
ONEWEB-0264,2021-060R,2024-08-23T15:25:38.788320,13.16595308,.0001746,87.9161,0.7172,99.4203,260.7125,0,U,48982,999,15241,.43992E-3,.181E-5,0
ONEWEB-0266,2021-060T,2024-08-23T14:06:59.966784,13.16595577,.0001894,87.9160,0.7038,99.8629,260.2716,0,U,48984,999,15239,.10213E-3,.52E-6,0
ONEWEB-0267,2021-060U,2024-08-24T01:19:34.081248,13.16595110,.0001396,87.9159,0.6128,101.6299,258.4989,0,U,48985,999,15375,.10414E-3,.53E-6,0
ONEWEB-0268,2021-060V,2024-08-24T02:23:23.496864,13.16595040,.0001672,87.9159,0.6104,93.2237,266.9085,0,U,48986,999,15402,.4579E-3,.188E-5,0
ONEWEB-0269,2021-060W,2024-08-23T14:59:24.209664,13.16589976,.0001859,87.9164,0.7320,96.2933,263.8409,0,U,48987,999,15244,-.26414E-2,-.997E-5,0
ONEWEB-0270,2021-060X,2024-08-23T15:24:30.559968,13.16595518,.0001499,87.9156,0.7085,115.6020,244.5266,0,U,48988,999,15248,.35741E-3,.149E-5,0
ONEWEB-0271,2021-060Y,2024-08-23T15:06:16.265088,13.16594708,.0001435,87.9160,0.6884,104.6866,255.4424,0,U,48989,999,15248,.31146E-3,.132E-5,0
ONEWEB-0272,2021-060Z,2024-08-23T13:48:44.317152,13.16594525,.0001543,87.9159,0.7286,101.2252,258.9052,0,U,48990,999,15372,-.68515E-3,-.249E-5,0
ONEWEB-0273,2021-060AA,2024-08-24T01:17:17.270304,13.16594796,.0001751,87.9160,0.6201,104.8334,255.2991,0,U,48991,999,15376,.84002E-4,.45E-6,0
ONEWEB-0274,2021-060AB,2024-08-23T14:57:09.130176,13.16594866,.000148,87.9166,0.7236,83.6452,276.4847,0,U,48992,999,15244,.95676E-4,.49E-6,0
ONEWEB-0275,2021-060AC,2024-08-23T14:41:12.976800,13.16595020,.0001702,87.9161,0.7033,104.1386,255.9934,0,U,48993,999,15237,.55685E-4,.34E-6,0
ONEWEB-0276,2021-060AD,2024-08-23T10:00:45.921888,13.16595186,.0001647,87.9159,0.7382,107.4138,252.7173,0,U,48994,999,15236,.31734E-3,.134E-5,0
ONEWEB-0277,2021-060AE,2024-08-24T00:54:29.231712,13.16595019,.0001351,87.9160,0.6529,110.3942,249.7334,0,U,48995,999,15372,.20368E-3,.91E-6,0
ONEWEB-0278,2021-060AF,2024-08-23T21:01:56.223552,13.16594875,.0002053,87.9159,0.6440,102.7218,257.4143,0,U,48996,999,15385,.25651E-3,.111E-5,0
ONEWEB-0279,2021-060AG,2024-08-24T02:41:38.009472,13.16596526,.00014,87.9158,0.5946,105.0234,255.1052,0,U,48997,999,15380,.36244E-3,.151E-5,0
ONEWEB-0280,2021-060AH,2024-08-24T01:12:42.582240,13.16593832,.0001831,87.9160,0.6088,106.8101,253.3231,0,U,48998,999,15372,.25765E-3,.111E-5,0
ONEWEB-0281,2021-060AJ,2024-08-23T14:25:13.516032,13.16595564,.0001757,87.9159,0.6993,92.4141,267.7191,0,U,48999,999,15244,.21378E-3,.95E-6,0
ONEWEB-0282,2021-060AK,2024-08-23T15:08:32.714016,13.16595114,.0001644,87.9158,0.7100,109.1101,251.0208,0,U,49000,999,15242,.13232E-3,.63E-6,0
ONEWEB-0283,2021-060AL,2024-08-23T14:52:34.512960,13.16595364,.0001508,87.9157,0.7180,101.3561,258.7740,0,U,49001,999,15375,-.5002E-3,-.178E-5,0
ONEWEB-0284,2021-060AM,2024-08-23T14:43:28.077888,13.16595197,.0001815,87.9153,0.6989,106.2662,253.8669,0,U,49002,999,15241,.29946E-3,.127E-5,0
JILIN-1 KUANFU-01B,2021-061A,2024-08-24T05:21:39.846240,15.13494037,.0022708,97.5885,310.5929,249.9121,109.9666,0,U,49003,999,17337,.51759E-3,.9259E-4,0
JILIN-1 GAOFEN 3D01,2021-061B,2024-08-24T05:05:15.497952,15.33212550,.0007356,97.3902,301.7546,253.9306,106.1127,0,U,49004,999,17402,.1072E-2,.34464E-3,0
JILIN-1 GAOFEN 3D02,2021-061C,2024-08-24T04:05:24.045216,15.24523206,.0003911,97.3894,298.0986,356.9361,3.1852,0,U,49005,999,17378,.96723E-3,.23782E-3,0
JILIN-1 GAOFEN 3D03,2021-061D,2024-08-24T03:38:32.683488,15.23310943,.0008204,97.3886,297.9562,322.8562,37.2107,0,U,49006,999,17377,.92576E-3,.21964E-3,0
XINGSHIDAI 10,2021-061E,2024-08-24T04:45:42.321600,15.23727119,.0009167,97.3885,297.9734,305.9228,54.1158,0,U,49007,999,17377,.8998E-3,.21615E-3,0
FENGYUN 3E,2021-062A,2024-08-24T05:07:42.289824,14.19776888,.000165,98.7357,237.5883,154.1052,206.0207,0,U,49008,999,16264,.63745E-4,.91E-6,0
TIANLIAN 1-05,2021-063A,2024-08-23T03:48:42.493824,1.00272465,.0003392,0.1421,296.8989,237.6397,231.3303,0,U,49011,999,1143,0,.1E-5,0
NINGXIA-1 6,2021-064A,2024-08-24T04:26:15.303840,14.08304658,.0008421,45.0024,337.4271,296.9061,63.0915,0,U,49018,999,16090,.15039E-3,.127E-5,0
NINGXIA-1 7,2021-064B,2024-08-24T05:48:31.150944,14.08292796,.0007391,45.0051,337.2664,304.4765,55.5373,0,U,49019,999,16092,.1492E-3,.125E-5,0
NINGXIA-1 8,2021-064C,2024-08-24T05:26:44.766528,14.08294207,.000809,44.9969,336.4427,310.5082,49.5049,0,U,49020,999,16092,.13595E-3,.102E-5,0
NINGXIA-1 9,2021-064D,2024-08-24T03:25:29.514144,14.08313436,.0008345,45.0049,337.3886,319.7327,40.2891,0,U,49021,999,16091,.12738E-3,.88E-6,0
NINGXIA-1 10,2021-064E,2024-08-24T03:02:52.004256,14.08298204,.0008182,45.0020,337.0441,325.5475,34.4831,0,U,49022,999,16091,.13453E-3,.1E-5,0
YAOGAN-30 11A,2021-065A,2024-08-24T04:57:48.184416,14.96002051,.0005371,34.9946,331.3150,151.8833,208.2164,0,U,49026,999,16918,.59002E-3,.6727E-4,0
TIANQI-15,2021-065B,2024-08-24T05:13:10.255584,14.99701208,.0006525,35.0018,310.5515,336.8632,23.1781,0,U,49027,999,16942,.73519E-3,.924E-4,0
YAOGAN-30 11B,2021-065C,2024-08-24T04:25:36.276960,14.96082560,.0000296,34.9948,331.1431,233.7498,126.3181,0,U,49028,999,16916,.60579E-3,.692E-4,0
YAOGAN-30 11C,2021-065D,2024-08-24T03:55:23.966976,14.96072880,.0004887,34.9959,331.0713,250.1109,109.9071,0,U,49029,999,16919,.59281E-3,.6771E-4,0
ISS (NAUKA),2021-066A,2024-08-23T13:04:52.000320,15.49926805,.0006469,51.6398,341.6185,261.9984,272.6227,0,U,49044,999,17493,.22557E-3,.12411E-3,0
TIANHUI 1-04,2021-067A,2024-08-24T04:12:33.477408,15.23556910,.0005515,97.3570,310.8011,17.7663,342.3766,0,U,49049,999,17080,.54389E-3,.12948E-3,0
MONOLITH,2021-068A,2024-08-23T17:52:22.534464,14.97112614,.0005854,37.0199,246.5141,212.8403,147.1976,0,U,49052,999,16747,.60185E-3,.7006E-4,0
STAR ONE D2,2021-069A,2024-08-21T12:57:30.642336,1.00269155,.0002629,0.0295,98.4710,62.8886,293.3337,0,U,49055,999,1126,0,-.272E-5,0
EUTELSAT QUANTUM,2021-069B,2024-08-23T13:35:08.448864,1.00272654,.0002046,0.0157,76.1741,72.8483,74.7869,0,U,49056,999,1128,0,.118E-5,0
KL-BETA A,2021-070A,2024-08-24T04:07:58.275264,13.94054836,.0001454,88.9842,291.2607,87.2102,272.9239,0,U,49059,999,15568,.13306E-3,.189E-5,0
KL-BETA B,2021-070B,2024-08-24T05:06:59.258304,13.94513408,.0006331,88.9841,291.2181,43.9077,316.2601,0,U,49060,999,15570,.14907E-3,.212E-5,0
ZHONGXING-2E,2021-071A,2024-08-24T00:42:46.764288,1.00269808,.0001072,0.0489,287.5408,289.6460,224.3635,0,U,49062,999,1139,0,-.299E-5,0
BRO-4,2021-073A,2024-08-24T04:45:02.033280,15.38798211,.0014099,97.4423,313.8283,17.5932,342.5799,0,U,49066,999,16719,.14459E-2,.55899E-3,0
SUNSTORM,2021-073C,2024-08-24T04:48:56.140128,15.87263145,.0008498,97.4261,321.1707,283.4678,76.5646,0,U,49068,999,16766,.26663E-2,.754563E-2,0
LEDSAT,2021-073D,2024-08-24T04:12:09.157536,15.28170530,.0018022,97.4315,307.9720,47.1228,313.1521,0,U,49069,999,16682,.10539E-2,.29081E-3,0
PLEIADES NEO 4,2021-073E,2024-08-24T04:45:58.267584,14.81668596,.0000898,97.8931,310.4595,103.4791,256.6521,0,U,49070,999,16334,.38722E-3,.2996E-4,0
TIANHUI 2-02A,2021-074A,2024-08-23T13:40:22.778112,15.16664559,.0001787,97.4700,238.0309,117.2109,242.9307,0,U,49071,999,16684,.29978E-3,.5801E-4,0
TIANHUI 2-02B,2021-074B,2024-08-23T13:40:22.838592,15.16664407,.0001921,97.4701,238.0264,101.8117,258.3331,0,U,49072,999,16683,.30435E-3,.5891E-4,0
ONEWEB-0285,2021-075A,2024-08-23T09:45:51.158304,13.12443707,.0001782,87.8921,122.6696,78.7506,281.3823,0,U,49075,999,14827,-.90281E-3,-.312E-5,0
